[{"OBJECT_NAME":"STARLINK-3588","OBJECT_ID":"2022-022T","EPOCH":"2025-11-14T07:03:33.631200","MEAN_MOTION":15.0881916,"ECCENTRICITY":0.00016781,"INCLINATION":53.215,"RA_OF_ASC_NODE":167.1519,"ARG_OF_PERICENTER":93.453,"MEAN_ANOMALY":266.6654,"EPHEMERIS_TYPE":0,"CLASSIFICATION_TYPE":"U","NORAD_CAT_ID":51869,"ELEMENT_SET_NO":999,"REV_AT_EPOCH":20569,"BSTAR":-0.00014326742,"MEAN_MOTION_DOT":-2.566e-5,"MEAN_MOTION_DDOT":0},{"OBJECT_NAME":"STARLINK-3591","OBJECT_ID":"2022-022U","EPOCH":"2025-11-14T07:14:08.311776","MEAN_MOTION":15.08841453,"ECCENTRICITY":0.00018766,"INCLINATION":53.2153,"RA_OF_ASC_NODE":167.1174,"ARG_OF_PERICENTER":86.8161,"MEAN_ANOMALY":273.3046,"EPHEMERIS_TYPE":0,"CLASSIFICATION_TYPE":"U","NORAD_CAT_ID":51870,"ELEMENT_SET_NO":999,"REV_AT_EPOCH":20574,"BSTAR":0.00025834145,"MEAN_MOTION_DOT":3.826e-5,"MEAN_MOTION_DDOT":0},{"OBJECT_NAME":"STARLINK-3567","OBJECT_ID":"2022-022V","EPOCH":"2025-11-14T06:58:15.655872","MEAN_MOTION":15.08814066,"ECCENTRICITY":0.00015106,"INCLINATION":53.2134,"RA_OF_ASC_NODE":167.1691,"ARG_OF_PERICENTER":83.5732,"MEAN_ANOMALY":276.5432,"EPHEMERIS_TYPE":0,"CLASSIFICATION_TYPE":"U","NORAD_CAT_ID":51871,"ELEMENT_SET_NO":999,"REV_AT_EPOCH":20580,"BSTAR":-0.00022649871,"MEAN_MOTION_DOT":-3.888e-5,"MEAN_MOTION_DDOT":0},{"OBJECT_NAME":"STARLINK-3554","OBJECT_ID":"2022-022W","EPOCH":"2025-11-14T07:08:51.084672","MEAN_MOTION":15.0882137,"ECCENTRICITY":0.00010295,"INCLINATION":53.2142,"RA_OF_ASC_NODE":167.1363,"ARG_OF_PERICENTER":82.9401,"MEAN_ANOMALY":277.1708,"EPHEMERIS_TYPE":0,"CLASSIFICATION_TYPE":"U","NORAD_CAT_ID":51872,"ELEMENT_SET_NO":999,"REV_AT_EPOCH":20569,"BSTAR":-0.00017236765,"MEAN_MOTION_DOT":-3.028e-5,"MEAN_MOTION_DDOT":0},{"OBJECT_NAME":"STARLINK-3582","OBJECT_ID":"2022-022X","EPOCH":"2025-11-13T23:58:09.754464","MEAN_MOTION":15.10496705,"ECCENTRICITY":0.00033413,"INCLINATION":53.2145,"RA_OF_ASC_NODE":168.3128,"ARG_OF_PERICENTER":132.5168,"MEAN_ANOMALY":227.6108,"EPHEMERIS_TYPE":0,"CLASSIFICATION_TYPE":"U","NORAD_CAT_ID":51873,"ELEMENT_SET_NO":999,"REV_AT_EPOCH":20565,"BSTAR":0.00095531278,"MEAN_MOTION_DOT":0.00015656,"MEAN_MOTION_DDOT":0},{"OBJECT_NAME":"STARLINK-3574","OBJECT_ID":"2022-022Y","EPOCH":"2025-11-14T06:52:58.329408","MEAN_MOTION":15.08819218,"ECCENTRICITY":0.00017574,"INCLINATION":53.2129,"RA_OF_ASC_NODE":167.188,"ARG_OF_PERICENTER":97.2736,"MEAN_ANOMALY":262.8456,"EPHEMERIS_TYPE":0,"CLASSIFICATION_TYPE":"U","NORAD_CAT_ID":51874,"ELEMENT_SET_NO":999,"REV_AT_EPOCH":20568,"BSTAR":-0.00013939559,"MEAN_MOTION_DOT":-2.505e-5,"MEAN_MOTION_DDOT":0},{"OBJECT_NAME":"STARLINK-3585","OBJECT_ID":"2022-022Z","EPOCH":"2025-11-13T23:59:36.224448","MEAN_MOTION":15.08827228,"ECCENTRICITY":0.00014059,"INCLINATION":53.2142,"RA_OF_ASC_NODE":168.3853,"ARG_OF_PERICENTER":99.5962,"MEAN_ANOMALY":260.5189,"EPHEMERIS_TYPE":0,"CLASSIFICATION_TYPE":"U","NORAD_CAT_ID":51875,"ELEMENT_SET_NO":999,"REV_AT_EPOCH":20565,"BSTAR":-7.3564506e-5,"MEAN_MOTION_DOT":-1.458e-5,"MEAN_MOTION_DDOT":0},{"OBJECT_NAME":"STARLINK-3583","OBJECT_ID":"2022-022AA","EPOCH":"2025-11-13T14:53:47.743872","MEAN_MOTION":15.08829306,"ECCENTRICITY":0.000122,"INCLINATION":53.2129,"RA_OF_ASC_NODE":170.1736,"ARG_OF_PERICENTER":83.5912,"MEAN_ANOMALY":276.5219,"EPHEMERIS_TYPE":0,"CLASSIFICATION_TYPE":"U","NORAD_CAT_ID":51876,"ELEMENT_SET_NO":999,"REV_AT_EPOCH":20559,"BSTAR":-8.3938e-5,"MEAN_MOTION_DOT":-1.623e-5,"MEAN_MOTION_DDOT":0},{"OBJECT_NAME":"STARLINK-3556","OBJECT_ID":"2022-022AB","EPOCH":"2025-11-14T00:00:56.659392","MEAN_MOTION":15.08820347,"ECCENTRICITY":7.332e-5,"INCLINATION":53.2134,"RA_OF_ASC_NODE":158.4693,"ARG_OF_PERICENTER":121.3576,"MEAN_ANOMALY":238.7488,"EPHEMERIS_TYPE":0,"CLASSIFICATION_TYPE":"U","NORAD_CAT_ID":51877,"ELEMENT_SET_NO":999,"REV_AT_EPOCH":20578,"BSTAR":-0.00011075765,"MEAN_MOTION_DOT":-2.049e-5,"MEAN_MOTION_DDOT":0},{"OBJECT_NAME":"STARLINK-3575","OBJECT_ID":"2022-022AC","EPOCH":"2025-11-14T00:15:27.888480","MEAN_MOTION":15.08841563,"ECCENTRICITY":8.48e-5,"INCLINATION":53.2165,"RA_OF_ASC_NODE":168.4238,"ARG_OF_PERICENTER":83.6874,"MEAN_ANOMALY":276.4215,"EPHEMERIS_TYPE":0,"CLASSIFICATION_TYPE":"U","NORAD_CAT_ID":51878,"ELEMENT_SET_NO":999,"REV_AT_EPOCH":20565,"BSTAR":3.0914427e-5,"MEAN_MOTION_DOT":2.04e-6,"MEAN_MOTION_DDOT":0},{"OBJECT_NAME":"STARLINK-3572","OBJECT_ID":"2022-022AD","EPOCH":"2025-11-13T23:50:20.299200","MEAN_MOTION":15.08822621,"ECCENTRICITY":0.00015027,"INCLINATION":53.2134,"RA_OF_ASC_NODE":158.5021,"ARG_OF_PERICENTER":88.1942,"MEAN_ANOMALY":271.9222,"EPHEMERIS_TYPE":0,"CLASSIFICATION_TYPE":"U","NORAD_CAT_ID":51879,"ELEMENT_SET_NO":999,"REV_AT_EPOCH":20578,"BSTAR":-0.00017819347,"MEAN_MOTION_DOT":-3.121e-5,"MEAN_MOTION_DDOT":0},{"OBJECT_NAME":"STARLINK-3566","OBJECT_ID":"2022-022AE","EPOCH":"2025-11-14T06:42:19.196640","MEAN_MOTION":15.08830731,"ECCENTRICITY":0.00016644,"INCLINATION":53.216,"RA_OF_ASC_NODE":166.9388,"ARG_OF_PERICENTER":95.1998,"MEAN_ANOMALY":264.9184,"EPHEMERIS_TYPE":0,"CLASSIFICATION_TYPE":"U","NORAD_CAT_ID":51880,"ELEMENT_SET_NO":999,"REV_AT_EPOCH":20569,"BSTAR":-0.00019179437,"MEAN_MOTION_DOT":-3.338e-5,"MEAN_MOTION_DDOT":0},{"OBJECT_NAME":"STARLINK-3504","OBJECT_ID":"2022-022AF","EPOCH":"2025-11-13T23:39:44.290656","MEAN_MOTION":15.08853392,"ECCENTRICITY":0.00012195,"INCLINATION":53.2146,"RA_OF_ASC_NODE":158.5358,"ARG_OF_PERICENTER":93.947,"MEAN_ANOMALY":266.1662,"EPHEMERIS_TYPE":0,"CLASSIFICATION_TYPE":"U","NORAD_CAT_ID":51881,"ELEMENT_SET_NO":999,"REV_AT_EPOCH":20583,"BSTAR":0.00015082003,"MEAN_MOTION_DOT":2.114e-5,"MEAN_MOTION_DDOT":0},{"OBJECT_NAME":"STARLINK-3570","OBJECT_ID":"2022-022AG","EPOCH":"2025-11-13T00:06:12.630240","MEAN_MOTION":15.08843304,"ECCENTRICITY":0.00014563,"INCLINATION":53.2147,"RA_OF_ASC_NODE":162.951,"ARG_OF_PERICENTER":82.3375,"MEAN_ANOMALY":277.7782,"EPHEMERIS_TYPE":0,"CLASSIFICATION_TYPE":"U","NORAD_CAT_ID":51882,"ELEMENT_SET_NO":999,"REV_AT_EPOCH":20568,"BSTAR":0.0004649376,"MEAN_MOTION_DOT":7.12e-5,"MEAN_MOTION_DDOT":0},{"OBJECT_NAME":"STARLINK-3576","OBJECT_ID":"2022-022AH","EPOCH":"2025-11-13T23:55:40.800000","MEAN_MOTION":15.0882069,"ECCENTRICITY":0.0001434,"INCLINATION":53.2155,"RA_OF_ASC_NODE":158.6676,"ARG_OF_PERICENTER":90.2364,"MEAN_ANOMALY":269.8792,"EPHEMERIS_TYPE":0,"CLASSIFICATION_TYPE":"U","NORAD_CAT_ID":51883,"ELEMENT_SET_NO":999,"REV_AT_EPOCH":20577,"BSTAR":-9.6156353e-5,"MEAN_MOTION_DOT":-1.817e-5,"MEAN_MOTION_DDOT":0},{"OBJECT_NAME":"STARLINK-3577","OBJECT_ID":"2022-022AJ","EPOCH":"2025-11-13T14:12:43.845696","MEAN_MOTION":15.08846803,"ECCENTRICITY":0.0001337,"INCLINATION":53.2169,"RA_OF_ASC_NODE":160.3021,"ARG_OF_PERICENTER":96.2896,"MEAN_ANOMALY":263.8249,"EPHEMERIS_TYPE":0,"CLASSIFICATION_TYPE":"U","NORAD_CAT_ID":51884,"ELEMENT_SET_NO":999,"REV_AT_EPOCH":20580,"BSTAR":9.1112e-6,"MEAN_MOTION_DOT":-1.43e-6,"MEAN_MOTION_DDOT":0},{"OBJECT_NAME":"STARLINK-3584","OBJECT_ID":"2022-022AK","EPOCH":"2025-11-13T12:16:07.737024","MEAN_MOTION":15.08852971,"ECCENTRICITY":0.0003187,"INCLINATION":53.208,"RA_OF_ASC_NODE":160.6627,"ARG_OF_PERICENTER":93.4475,"MEAN_ANOMALY":266.6882,"EPHEMERIS_TYPE":0,"CLASSIFICATION_TYPE":"U","NORAD_CAT_ID":51885,"ELEMENT_SET_NO":999,"REV_AT_EPOCH":20570,"BSTAR":-8.1946e-5,"MEAN_MOTION_DOT":-1.593e-5,"MEAN_MOTION_DDOT":0},{"OBJECT_NAME":"STARLINK-3565","OBJECT_ID":"2022-022AL","EPOCH":"2025-11-13T23:34:23.598048","MEAN_MOTION":15.08868153,"ECCENTRICITY":0.00014503,"INCLINATION":53.2155,"RA_OF_ASC_NODE":158.5513,"ARG_OF_PERICENTER":95.3887,"MEAN_ANOMALY":264.7271,"EPHEMERIS_TYPE":0,"CLASSIFICATION_TYPE":"U","NORAD_CAT_ID":51886,"ELEMENT_SET_NO":999,"REV_AT_EPOCH":20578,"BSTAR":0.00036892948,"MEAN_MOTION_DOT":5.593e-5,"MEAN_MOTION_DDOT":0},{"OBJECT_NAME":"STARLINK-3551","OBJECT_ID":"2022-022AM","EPOCH":"2025-11-13T15:21:36.972000","MEAN_MOTION":15.08841426,"ECCENTRICITY":0.00014853,"INCLINATION":53.215,"RA_OF_ASC_NODE":160.0869,"ARG_OF_PERICENTER":92.864,"MEAN_ANOMALY":267.2522,"EPHEMERIS_TYPE":0,"CLASSIFICATION_TYPE":"U","NORAD_CAT_ID":51887,"ELEMENT_SET_NO":999,"REV_AT_EPOCH":20572,"BSTAR":9.1525088e-5,"MEAN_MOTION_DOT":1.169e-5,"MEAN_MOTION_DDOT":0},{"OBJECT_NAME":"STARLINK-3536","OBJECT_ID":"2022-022AN","EPOCH":"2025-11-13T23:29:06.304416","MEAN_MOTION":15.08857063,"ECCENTRICITY":0.00030181,"INCLINATION":53.2108,"RA_OF_ASC_NODE":158.5693,"ARG_OF_PERICENTER":78.2236,"MEAN_ANOMALY":281.9095,"EPHEMERIS_TYPE":0,"CLASSIFICATION_TYPE":"U","NORAD_CAT_ID":51888,"ELEMENT_SET_NO":999,"REV_AT_EPOCH":20578,"BSTAR":0.00036986873,"MEAN_MOTION_DOT":5.606e-5,"MEAN_MOTION_DDOT":0},{"OBJECT_NAME":"STARLINK-3547","OBJECT_ID":"2022-022AP","EPOCH":"2025-11-14T06:59:34.706688","MEAN_MOTION":15.08824546,"ECCENTRICITY":9.539e-5,"INCLINATION":53.2173,"RA_OF_ASC_NODE":157.1612,"ARG_OF_PERICENTER":95.2468,"MEAN_ANOMALY":264.8633,"EPHEMERIS_TYPE":0,"CLASSIFICATION_TYPE":"U","NORAD_CAT_ID":51889,"ELEMENT_SET_NO":999,"REV_AT_EPOCH":20582,"BSTAR":-6.425724e-5,"MEAN_MOTION_DOT":-1.31e-5,"MEAN_MOTION_DDOT":0},{"OBJECT_NAME":"STARLINK-3549","OBJECT_ID":"2022-022AR","EPOCH":"2025-11-14T06:54:16.950816","MEAN_MOTION":15.08822532,"ECCENTRICITY":0.00012109,"INCLINATION":53.2153,"RA_OF_ASC_NODE":157.1791,"ARG_OF_PERICENTER":88.6069,"MEAN_ANOMALY":271.5062,"EPHEMERIS_TYPE":0,"CLASSIFICATION_TYPE":"U","NORAD_CAT_ID":51891,"ELEMENT_SET_NO":999,"REV_AT_EPOCH":20587,"BSTAR":1.4010856e-5,"MEAN_MOTION_DOT":-6.5e-7,"MEAN_MOTION_DDOT":0},{"OBJECT_NAME":"STARLINK-3587","OBJECT_ID":"2022-022AS","EPOCH":"2025-11-13T13:35:38.935104","MEAN_MOTION":15.08829675,"ECCENTRICITY":0.0001014,"INCLINATION":53.2175,"RA_OF_ASC_NODE":160.4152,"ARG_OF_PERICENTER":91.2786,"MEAN_ANOMALY":268.8322,"EPHEMERIS_TYPE":0,"CLASSIFICATION_TYPE":"U","NORAD_CAT_ID":51892,"ELEMENT_SET_NO":999,"REV_AT_EPOCH":20571,"BSTAR":-3.1094e-5,"MEAN_MOTION_DOT":-7.82e-6,"MEAN_MOTION_DDOT":0}]
